PANDORA
1 67395U 80229J   26124.98469907  .00000000  00000-0  37770-3 0    08
2 67395  97.8021 124.3131 0004082 289.4063 351.4724 14.87890913    06
